start=new Date('2022-02-19T00:00:00.000Z').valueOf();
sats=[{"GP_ID":"196330285","REF_FRAME":"TEME","EPOCH":"2022-02-18T20:34:44.262336","TLE_LINE2":"2 45234  53.0541 209.8302 0001658  78.3100 281.8075 15.06395205111764","MEAN_ANOMALY":"281.8075","REV_AT_EPOCH":"11176","OBJECT_ID":"2020-012BJ","MEAN_MOTION_DOT":"-0.00000265","MEAN_ELEMENT_THEORY":"SGP4","OBJECT_TYPE":"PAYLOAD","INCLINATION":"53.0541","SEMIMAJOR_AXIS":"6925.363","RCS_SIZE":"LARGE","SITE":"AFETR","RA_OF_ASC_NODE":"209.8302","PERIOD":"95.592","MEAN_MOTION":"15.06395205","APOAPSIS":"548.376","TLE_LINE1":"1 45234U 20012BJ  22049.85745674 -.00000265  00000-0  11355-5 0  9990","OBJECT_NAME":"STARLINK-1243","DECAY_DATE":null,"ARG_OF_PERICENTER":"78.3100","EPHEMERIS_TYPE":"0","NORAD_CAT_ID":"45234","COUNTRY_CODE":"US","ECCENTRICITY":"0.00016580","BSTAR":"0.00000113550000","FILE":"3307132","CLASSIFICATION_TYPE":"U","CENTER_NAME":"EARTH","MEAN_MOTION_DDOT":"0.0000000000000","LAUNCH_DATE":"2020-02-17","TIME_SYSTEM":"UTC","PERIAPSIS":"546.080","ELEMENT_SET_NO":"999"},{"EPOCH":"2022-02-18T18:37:57.019296","GP_ID":"196300529","REF_FRAME":"TEME","OBJECT_ID":"2020-012BK","REV_AT_EPOCH":"11087","MEAN_ANOMALY":"291.8378","TLE_LINE2":"2 45235  53.0526 210.2147 0001568  68.2777 291.8378 15.06398861110878","RCS_SIZE":"LARGE","SEMIMAJOR_AXIS":"6925.352","INCLINATION":"53.0526","OBJECT_TYPE":"PAYLOAD","MEAN_ELEMENT_THEORY":"SGP4","MEAN_MOTION_DOT":"-0.00000061","MEAN_MOTION":"15.06398861","PERIOD":"95.592","RA_OF_ASC_NODE":"210.2147","SITE":"AFETR","COUNTRY_CODE":"US","ECCENTRICITY":"0.00015680","NORAD_CAT_ID":"45235","EPHEMERIS_TYPE":"0","DECAY_DATE":null,"ARG_OF_PERICENTER":"68.2777","OBJECT_NAME":"STARLINK-1246","TLE_LINE1":"1 45235U 20012BK  22049.77635439 -.00000061  00000-0  14808-4 0  9998","APOAPSIS":"548.303","CENTER_NAME":"EARTH","CLASSIFICATION_TYPE":"U","FILE":"3306670","BSTAR":"0.00001480800000","TIME_SYSTEM":"UTC","LAUNCH_DATE":"2020-02-17","MEAN_MOTION_DDOT":"0.0000000000000","ELEMENT_SET_NO":"999","PERIAPSIS":"546.131"},{"OBJECT_ID":"2020-012BL","MEAN_ANOMALY":"303.1686","REV_AT_EPOCH":"11233","TLE_LINE2":"2 45236  53.0531 170.2845 0001834  56.9479 303.1686 15.06396773112336","EPOCH":"2022-02-18T18:11:25.265184","REF_FRAME":"TEME","GP_ID":"196331786","PERIOD":"95.592","MEAN_MOTION":"15.06396773","RA_OF_ASC_NODE":"170.2845","SITE":"AFETR","SEMIMAJOR_AXIS":"6925.358","RCS_SIZE":"LARGE","OBJECT_TYPE":"PAYLOAD","INCLINATION":"53.0531","MEAN_ELEMENT_THEORY":"SGP4","MEAN_MOTION_DOT":"0.00001674","CENTER_NAME":"EARTH","FILE":"3307132","CLASSIFICATION_TYPE":"U","BSTAR":"0.00013124000000","EPHEMERIS_TYPE":"0","COUNTRY_CODE":"US","ECCENTRICITY":"0.00018340","NORAD_CAT_ID":"45236","ARG_OF_PERICENTER":"56.9479","DECAY_DATE":null,"TLE_LINE1":"1 45236U 20012BL  22049.75793131  .00001674  00000-0  13124-3 0  9990","OBJECT_NAME":"STARLINK-1247","APOAPSIS":"548.494","ELEMENT_SET_NO":"999","PERIAPSIS":"545.953","TIME_SYSTEM":"UTC","LAUNCH_DATE":"2020-02-17","MEAN_MOTION_DDOT":"0.0000000000000"},{"CENTER_NAME":"EARTH","FILE":"3307132","BSTAR":"-0.00000785710000","CLASSIFICATION_TYPE":"U","COUNTRY_CODE":"US","ECCENTRICITY":"0.00013670","NORAD_CAT_ID":"45237","EPHEMERIS_TYPE":"0","DECAY_DATE":null,"ARG_OF_PERICENTER":"60.2599","OBJECT_NAME":"STARLINK-1270","TLE_LINE1":"1 45237U 20012BM  22049.71370029 -.00000398  00000-0 -78571-5 0  9997","APOAPSIS":"548.147","ELEMENT_SET_NO":"999","PERIAPSIS":"546.253","TIME_SYSTEM":"UTC","LAUNCH_DATE":"2020-02-17","MEAN_MOTION_DDOT":"0.0000000000000","OBJECT_ID":"2020-012BM","REV_AT_EPOCH":"11233","MEAN_ANOMALY":"299.8526","TLE_LINE2":"2 45237  53.0549 170.5040 0001367  60.2599 299.8526 15.06404365112339","EPOCH":"2022-02-18T17:07:43.705056","REF_FRAME":"TEME","GP_ID":"196331534","MEAN_MOTION":"15.06404365","PERIOD":"95.592","RA_OF_ASC_NODE":"170.5040","SITE":"AFETR","RCS_SIZE":"LARGE","SEMIMAJOR_AXIS":"6925.335","INCLINATION":"53.0549","OBJECT_TYPE":"PAYLOAD","MEAN_MOTION_DOT":"-0.00000398","MEAN_ELEMENT_THEORY":"SGP4"},{"TLE_LINE2":"2 45360  53.0538 299.7830 0001622  66.5670 293.5490 15.06414632107094","REV_AT_EPOCH":"10709","MEAN_ANOMALY":"293.5490","OBJECT_ID":"2020-019A","GP_ID":"196331300","REF_FRAME":"TEME","EPOCH":"2022-02-18T20:54:38.555712","SITE":"AFETR","RA_OF_ASC_NODE":"299.7830","PERIOD":"95.591","MEAN_MOTION":"15.06414632","MEAN_ELEMENT_THEORY":"SGP4","MEAN_MOTION_DOT":"0.00006964","OBJECT_TYPE":"PAYLOAD","INCLINATION":"53.0538","SEMIMAJOR_AXIS":"6925.304","RCS_SIZE":"LARGE","FILE":"3307132","CLASSIFICATION_TYPE":"U","BSTAR":"0.00048579000000","CENTER_NAME":"EARTH","APOAPSIS":"548.292","TLE_LINE1":"1 45360U 20019A   22049.87127958  .00006964  00000-0  48579-3 0  9995","OBJECT_NAME":"STARLINK-1279","DECAY_DATE":null,"ARG_OF_PERICENTER":"66.5670","EPHEMERIS_TYPE":"0","COUNTRY_CODE":"US","NORAD_CAT_ID":"45360","ECCENTRICITY":"0.00016220","PERIAPSIS":"546.045","ELEMENT_SET_NO":"999","MEAN_MOTION_DDOT":"0.0000000000000","LAUNCH_DATE":"2020-03-18","TIME_SYSTEM":"UTC"},{"REF_FRAME":"TEME","GP_ID":"196332047","EPOCH":"2022-02-18T22:12:54.876960","TLE_LINE2":"2 45361  53.0537 309.5370 0001274  92.9643 267.1492 15.06389401106979","OBJECT_ID":"2020-019B","REV_AT_EPOCH":"10697","MEAN_ANOMALY":"267.1492","MEAN_MOTION_DOT":"-0.00003037","MEAN_ELEMENT_THEORY":"SGP4","SEMIMAJOR_AXIS":"6925.381","RCS_SIZE":"LARGE","OBJECT_TYPE":"PAYLOAD","INCLINATION":"53.0537","RA_OF_ASC_NODE":"309.5370","SITE":"AFETR","PERIOD":"95.593","MEAN_MOTION":"15.06389401","TLE_LINE1":"1 45361U 20019B   22049.92563515 -.00003037  00000-0 -18514-3 0  9991","OBJECT_NAME":"STARLINK-1301","APOAPSIS":"548.128","EPHEMERIS_TYPE":"0","ECCENTRICITY":"0.00012740","COUNTRY_CODE":"US","NORAD_CAT_ID":"45361","DECAY_DATE":null,"ARG_OF_PERICENTER":"92.9643","CENTER_NAME":"EARTH","CLASSIFICATION_TYPE":"U","FILE":"3307132","BSTAR":"-0.00018514000000","LAUNCH_DATE":"2020-03-18","MEAN_MOTION_DDOT":"0.0000000000000","TIME_SYSTEM":"UTC","PERIAPSIS":"546.364","ELEMENT_SET_NO":"999"},{"MEAN_MOTION_DOT":"0.00007733","MEAN_ELEMENT_THEORY":"SGP4","INCLINATION":"53.0549","OBJECT_TYPE":"PAYLOAD","RCS_SIZE":"LARGE","SEMIMAJOR_AXIS":"6925.270","SITE":"AFETR","RA_OF_ASC_NODE":"330.2235","MEAN_MOTION":"15.06425483","PERIOD":"95.591","GP_ID":"196330299","REF_FRAME":"TEME","EPOCH":"2022-02-18T18:32:38.532480","TLE_LINE2":"2 45362  53.0549 330.2235 0001761  66.7574 293.3600 15.06425483106666","MEAN_ANOMALY":"293.3600","REV_AT_EPOCH":"10666","OBJECT_ID":"2020-019C","MEAN_MOTION_DDOT":"0.0000000000000","LAUNCH_DATE":"2020-03-18","TIME_SYSTEM":"UTC","PERIAPSIS":"545.916","ELEMENT_SET_NO":"999","APOAPSIS":"548.355","OBJECT_NAME":"STARLINK-1306","TLE_LINE1":"1 45362U 20019C   22049.77266820  .00007733  00000-0  53708-3 0  9993","ARG_OF_PERICENTER":"66.7574","DECAY_DATE":null,"ECCENTRICITY":"0.00017610","COUNTRY_CODE":"US","NORAD_CAT_ID":"45362","EPHEMERIS_TYPE":"0","CLASSIFICATION_TYPE":"U","FILE":"3307132","BSTAR":"0.00053708000000","CENTER_NAME":"EARTH"},{"LAUNCH_DATE":"2020-03-18","MEAN_MOTION_DDOT":"0.0000000000000","TIME_SYSTEM":"UTC","PERIAPSIS":"546.023","ELEMENT_SET_NO":"999","OBJECT_NAME":"STARLINK-1313","TLE_LINE1":"1 45364U 20019E   22049.93392855  .00003890  00000-0  27978-3 0  9991","APOAPSIS":"548.321","COUNTRY_CODE":"US","NORAD_CAT_ID":"45364","ECCENTRICITY":"0.00016590","EPHEMERIS_TYPE":"0","ARG_OF_PERICENTER":"66.3236","DECAY_DATE":null,"CENTER_NAME":"EARTH","FILE":"3307132","BSTAR":"0.00027978000000","CLASSIFICATION_TYPE":"U","MEAN_MOTION_DOT":"0.00003890","MEAN_ELEMENT_THEORY":"SGP4","RCS_SIZE":"LARGE","SEMIMAJOR_AXIS":"6925.307","INCLINATION":"53.0544","OBJECT_TYPE":"PAYLOAD","RA_OF_ASC_NODE":"299.5064","SITE":"AFETR","MEAN_MOTION":"15.06413472","PERIOD":"95.591","REF_FRAME":"TEME","GP_ID":"196330549","EPOCH":"2022-02-18T22:24:51.426720","TLE_LINE2":"2 45364  53.0544 299.5064 0001659  66.3236 293.7927 15.06413472107108","OBJECT_ID":"2020-019E","REV_AT_EPOCH":"10710","MEAN_ANOMALY":"293.7927"},{"EPOCH":"2022-02-18T21:03:46.524384","REF_FRAME":"TEME","GP_ID":"196331800","OBJECT_ID":"2020-019F","REV_AT_EPOCH":"10692","MEAN_ANOMALY":"293.2529","TLE_LINE2":"2 45365  52.9994 309.7710 0001687  66.8637 293.2529 15.05589786106922","RCS_SIZE":"LARGE","SEMIMAJOR_AXIS":"6927.833","INCLINATION":"52.9994","OBJECT_TYPE":"PAYLOAD","MEAN_MOTION_DOT":"0.00000540","MEAN_ELEMENT_THEORY":"SGP4","MEAN_MOTION":"15.05589786","PERIOD":"95.644","RA_OF_ASC_NODE":"309.7710","SITE":"AFETR","COUNTRY_CODE":"US","ECCENTRICITY":"0.00016870","NORAD_CAT_ID":"45365","EPHEMERIS_TYPE":"0","ARG_OF_PERICENTER":"66.8637","DECAY_DATE":null,"OBJECT_NAME":"STARLINK-1317","TLE_LINE1":"1 45365U 20019F   22049.87762181  .00000540  00000-0  56231-4 0  9992","APOAPSIS":"550.867","CENTER_NAME":"EARTH","FILE":"3307132","BSTAR":"0.00005623100000","CLASSIFICATION_TYPE":"U","TIME_SYSTEM":"UTC","LAUNCH_DATE":"2020-03-18","MEAN_MOTION_DDOT":"0.0000000000000","ELEMENT_SET_NO":"999","PERIAPSIS":"548.529"},{"GP_ID":"196331548","REF_FRAME":"TEME","EPOCH":"2022-02-18T21:22:29.467776","TLE_LINE2":"2 45366  53.0549 329.6876 0001747  67.1785 292.9388 15.06415014106696","REV_AT_EPOCH":"10669","MEAN_ANOMALY":"292.9388","OBJECT_ID":"2020-019G","MEAN_MOTION_DOT":"0.00003648","MEAN_ELEMENT_THEORY":"SGP4","OBJECT_TYPE":"PAYLOAD","INCLINATION":"53.0549","SEMIMAJOR_AXIS":"6925.303","RCS_SIZE":"LARGE","SITE":"AFETR","RA_OF_ASC_NODE":"329.6876","PERIOD":"95.591","MEAN_MOTION":"15.06415014","APOAPSIS":"548.377","TLE_LINE1":"1 45366U 20019G   22049.89061884  .00003648  00000-0  26357-3 0  9994","OBJECT_NAME":"STARLINK-1262","DECAY_DATE":null,"ARG_OF_PERICENTER":"67.1785","EPHEMERIS_TYPE":"0","COUNTRY_CODE":"US","NORAD_CAT_ID":"45366","ECCENTRICITY":"0.00017470","FILE":"3307132","BSTAR":"0.00026357000000","CLASSIFICATION_TYPE":"U","CENTER_NAME":"EARTH","MEAN_MOTION_DDOT":"0.0000000000000","LAUNCH_DATE":"2020-03-18","TIME_SYSTEM":"UTC","PERIAPSIS":"545.958","ELEMENT_SET_NO":"999"}];
